start=new Date('2023-06-07T00:00:00.000Z').valueOf();
sats=[{"RA_OF_ASC_NODE":"62.3952","RCS_SIZE":"LARGE","MEAN_ANOMALY":"96.7200","TLE_LINE2":"2 55582  43.0045  62.3952 0001400 263.3483  96.7200 15.02533758 17612","NORAD_CAT_ID":"55582","ARG_OF_PERICENTER":"263.3483","APOAPSIS":"560.060","OBJECT_ID":"2023-020P","DECAY_DATE":null,"EPOCH":"2023-06-06T19:37:46.916832","CENTER_NAME":"EARTH","BSTAR":"0.00003496500000","SITE":"AFETR","ECCENTRICITY":"0.00014000","PERIOD":"95.838","TLE_LINE1":"1 55582U 23020P   23157.81790413  .00000269  00000-0  34965-4 0  9991","MEAN_MOTION_DDOT":"0.0000000000000","TIME_SYSTEM":"UTC","LAUNCH_DATE":"2023-02-12","CLASSIFICATION_TYPE":"U","MEAN_ELEMENT_THEORY":"SGP4","REF_FRAME":"TEME","INCLINATION":"43.0045","REV_AT_EPOCH":"1761","EPHEMERIS_TYPE":"0","OBJECT_TYPE":"PAYLOAD","MEAN_MOTION":"15.02533758","COUNTRY_CODE":"US","MEAN_MOTION_DOT":"0.00000269","GP_ID":"233360590","FILE":"3926571","ELEMENT_SET_NO":"999","PERIAPSIS":"558.117","OBJECT_NAME":"STARLINK-5741","SEMIMAJOR_AXIS":"6937.223"},{"COUNTRY_CODE":"US","MEAN_MOTION_DOT":"0.00000877","MEAN_MOTION":"15.02538359","OBJECT_TYPE":"PAYLOAD","OBJECT_NAME":"STARLINK-5742","SEMIMAJOR_AXIS":"6937.209","PERIAPSIS":"558.191","ELEMENT_SET_NO":"999","FILE":"3926571","GP_ID":"233360840","REF_FRAME":"TEME","MEAN_ELEMENT_THEORY":"SGP4","EPHEMERIS_TYPE":"0","REV_AT_EPOCH":"1746","INCLINATION":"43.0048","BSTAR":"0.00007995900000","SITE":"AFETR","ECCENTRICITY":"0.00012730","CENTER_NAME":"EARTH","DECAY_DATE":null,"EPOCH":"2023-06-06T20:20:33.393408","CLASSIFICATION_TYPE":"U","LAUNCH_DATE":"2023-02-12","TIME_SYSTEM":"UTC","MEAN_MOTION_DDOT":"0.0000000000000","TLE_LINE1":"1 55583U 23020Q   23157.84760872  .00000877  00000-0  79959-4 0  9998","PERIOD":"95.838","MEAN_ANOMALY":"94.2736","RCS_SIZE":"LARGE","RA_OF_ASC_NODE":"75.5713","OBJECT_ID":"2023-020Q","APOAPSIS":"559.957","ARG_OF_PERICENTER":"265.7961","NORAD_CAT_ID":"55583","TLE_LINE2":"2 55583  43.0048  75.5713 0001273 265.7961  94.2736 15.02538359 17464"},{"OBJECT_ID":"2023-020R","ARG_OF_PERICENTER":"271.2419","APOAPSIS":"560.122","TLE_LINE2":"2 55584  43.0052  75.5554 0001479 271.2419  88.8254 15.02531342 17460","NORAD_CAT_ID":"55584","MEAN_ANOMALY":"88.8254","RCS_SIZE":"LARGE","RA_OF_ASC_NODE":"75.5554","CLASSIFICATION_TYPE":"U","LAUNCH_DATE":"2023-02-12","MEAN_MOTION_DDOT":"0.0000000000000","TLE_LINE1":"1 55584U 23020R   23157.84538957  .00002085  00000-0  16937-3 0  9995","TIME_SYSTEM":"UTC","PERIOD":"95.838","BSTAR":"0.00016937000000","SITE":"AFETR","ECCENTRICITY":"0.00014790","CENTER_NAME":"EARTH","EPOCH":"2023-06-06T20:17:21.658848","DECAY_DATE":null,"REV_AT_EPOCH":"1746","EPHEMERIS_TYPE":"0","INCLINATION":"43.0052","REF_FRAME":"TEME","MEAN_ELEMENT_THEORY":"SGP4","SEMIMAJOR_AXIS":"6937.231","OBJECT_NAME":"STARLINK-5736","ELEMENT_SET_NO":"999","FILE":"3926571","PERIAPSIS":"558.070","GP_ID":"233361092","MEAN_MOTION_DOT":"0.00002085","COUNTRY_CODE":"US","MEAN_MOTION":"15.02531342","OBJECT_TYPE":"PAYLOAD"},{"BSTAR":"0.00006294900000","SITE":"AFETR","ECCENTRICITY":"0.00013080","EPOCH":"2023-06-06T19:21:58.376160","DECAY_DATE":null,"CENTER_NAME":"EARTH","LAUNCH_DATE":"2023-02-12","CLASSIFICATION_TYPE":"U","PERIOD":"95.838","TIME_SYSTEM":"UTC","MEAN_MOTION_DDOT":"0.0000000000000","TLE_LINE1":"1 55585U 23020S   23157.80692565  .00000647  00000-0  62949-4 0  9995","RCS_SIZE":"LARGE","MEAN_ANOMALY":"90.2317","RA_OF_ASC_NODE":"63.1703","APOAPSIS":"559.994","ARG_OF_PERICENTER":"269.8375","OBJECT_ID":"2023-020S","NORAD_CAT_ID":"55585","TLE_LINE2":"2 55585  43.0042  63.1703 0001308 269.8375  90.2317 15.02534494 17608","MEAN_MOTION_DOT":"0.00000647","COUNTRY_CODE":"US","OBJECT_TYPE":"PAYLOAD","MEAN_MOTION":"15.02534494","PERIAPSIS":"558.179","ELEMENT_SET_NO":"999","FILE":"3926571","SEMIMAJOR_AXIS":"6937.221","OBJECT_NAME":"STARLINK-5769","GP_ID":"233361343","REF_FRAME":"TEME","MEAN_ELEMENT_THEORY":"SGP4","INCLINATION":"43.0042","EPHEMERIS_TYPE":"0","REV_AT_EPOCH":"1760"},{"SITE":"AFETR","ECCENTRICITY":"0.00011480","BSTAR":"0.00004599500000","DECAY_DATE":null,"EPOCH":"2023-06-06T20:04:34.762944","CENTER_NAME":"EARTH","LAUNCH_DATE":"2023-02-12","CLASSIFICATION_TYPE":"U","PERIOD":"95.838","MEAN_MOTION_DDOT":"0.0000000000000","TLE_LINE1":"1 55586U 23020T   23157.83651346  .00000418  00000-0  45995-4 0  9999","TIME_SYSTEM":"UTC","RCS_SIZE":"LARGE","MEAN_ANOMALY":"97.5867","RA_OF_ASC_NODE":"75.4911","ARG_OF_PERICENTER":"262.4845","APOAPSIS":"559.891","OBJECT_ID":"2023-020T","NORAD_CAT_ID":"55586","TLE_LINE2":"2 55586  43.0041  75.4911 0001148 262.4845  97.5867 15.02531906 17467","COUNTRY_CODE":"US","MEAN_MOTION_DOT":"0.00000418","OBJECT_TYPE":"PAYLOAD","MEAN_MOTION":"15.02531906","FILE":"3926571","ELEMENT_SET_NO":"999","PERIAPSIS":"558.298","OBJECT_NAME":"STARLINK-5767","SEMIMAJOR_AXIS":"6937.229","GP_ID":"233360091","REF_FRAME":"TEME","MEAN_ELEMENT_THEORY":"SGP4","INCLINATION":"43.0041","REV_AT_EPOCH":"1746","EPHEMERIS_TYPE":"0"},{"SITE":"AFETR","ECCENTRICITY":"0.00014670","BSTAR":"-0.00002717300000","CENTER_NAME":"EARTH","DECAY_DATE":null,"EPOCH":"2023-06-06T22:05:54.892608","CLASSIFICATION_TYPE":"U","LAUNCH_DATE":"2023-02-12","MEAN_MOTION_DDOT":"0.0000000000000","TLE_LINE1":"1 55587U 23020U   23157.92077422 -.00000561  00000-0 -27173-4 0  9996","TIME_SYSTEM":"UTC","PERIOD":"95.890","MEAN_ANOMALY":"92.9260","RCS_SIZE":"LARGE","RA_OF_ASC_NODE":"72.6711","OBJECT_ID":"2023-020U","ARG_OF_PERICENTER":"267.1415","APOAPSIS":"562.603","TLE_LINE2":"2 55587  43.0050  72.6711 0001467 267.1415  92.9260 15.01723071 17500","NORAD_CAT_ID":"55587","COUNTRY_CODE":"US","MEAN_MOTION_DOT":"-0.00000561","MEAN_MOTION":"15.01723071","OBJECT_TYPE":"PAYLOAD","SEMIMAJOR_AXIS":"6939.720","OBJECT_NAME":"STARLINK-5727","ELEMENT_SET_NO":"999","FILE":"3926571","PERIAPSIS":"560.567","GP_ID":"233360341","REF_FRAME":"TEME","MEAN_ELEMENT_THEORY":"SGP4","REV_AT_EPOCH":"1750","EPHEMERIS_TYPE":"0","INCLINATION":"43.0050"},{"SITE":"AFETR","ECCENTRICITY":"0.00008110","BSTAR":"0.00002701800000","CENTER_NAME":"EARTH","DECAY_DATE":null,"EPOCH":"2023-06-06T19:54:59.425344","CLASSIFICATION_TYPE":"U","LAUNCH_DATE":"2023-02-12","TLE_LINE1":"1 55588U 23020V   23157.82985446  .00000161  00000-0  27018-4 0  9992","MEAN_MOTION_DDOT":"0.0000000000000","TIME_SYSTEM":"UTC","PERIOD":"95.838","MEAN_ANOMALY":"97.8405","RCS_SIZE":"LARGE","RA_OF_ASC_NODE":"75.4469","OBJECT_ID":"2023-020V","ARG_OF_PERICENTER":"262.2345","APOAPSIS":"559.647","TLE_LINE2":"2 55588  43.0041  75.4469 0000811 262.2345  97.8405 15.02535117 17465","NORAD_CAT_ID":"55588","MEAN_MOTION_DOT":"0.00000161","COUNTRY_CODE":"US","MEAN_MOTION":"15.02535117","OBJECT_TYPE":"PAYLOAD","SEMIMAJOR_AXIS":"6937.219","OBJECT_NAME":"STARLINK-5728","FILE":"3926571","ELEMENT_SET_NO":"999","PERIAPSIS":"558.522","GP_ID":"233361592","REF_FRAME":"TEME","MEAN_ELEMENT_THEORY":"SGP4","REV_AT_EPOCH":"1746","EPHEMERIS_TYPE":"0","INCLINATION":"43.0041"},{"NORAD_CAT_ID":"55589","TLE_LINE2":"2 55589  43.0045  75.4748 0001198 265.6710  94.3996 15.02537634 17465","APOAPSIS":"559.908","ARG_OF_PERICENTER":"265.6710","OBJECT_ID":"2023-020W","RA_OF_ASC_NODE":"75.4748","RCS_SIZE":"LARGE","MEAN_ANOMALY":"94.3996","PERIOD":"95.838","TIME_SYSTEM":"UTC","MEAN_MOTION_DDOT":"0.0000000000000","TLE_LINE1":"1 55589U 23020W   23157.83429265  .00000283  00000-0  36042-4 0  9998","LAUNCH_DATE":"2023-02-12","CLASSIFICATION_TYPE":"U","EPOCH":"2023-06-06T20:01:22.884960","DECAY_DATE":null,"CENTER_NAME":"EARTH","BSTAR":"0.00003604200000","SITE":"AFETR","ECCENTRICITY":"0.00011980","INCLINATION":"43.0045","EPHEMERIS_TYPE":"0","REV_AT_EPOCH":"1746","MEAN_ELEMENT_THEORY":"SGP4","REF_FRAME":"TEME","GP_ID":"233361843","PERIAPSIS":"558.245","ELEMENT_SET_NO":"999","FILE":"3926571","SEMIMAJOR_AXIS":"6937.212","OBJECT_NAME":"STARLINK-5697","OBJECT_TYPE":"PAYLOAD","MEAN_MOTION":"15.02537634","MEAN_MOTION_DOT":"0.00000283","COUNTRY_CODE":"US"},{"OBJECT_ID":"2023-020X","ARG_OF_PERICENTER":"272.9083","APOAPSIS":"560.064","TLE_LINE2":"2 55590  43.0044  75.4053 0001404 272.9083  87.1599 15.02533295 17467","NORAD_CAT_ID":"55590","MEAN_ANOMALY":"87.1599","RCS_SIZE":"LARGE","RA_OF_ASC_NODE":"75.4053","CLASSIFICATION_TYPE":"U","LAUNCH_DATE":"2023-02-12","TLE_LINE1":"1 55590U 23020X   23157.82430396  .00000396  00000-0  44389-4 0  9994","MEAN_MOTION_DDOT":"0.0000000000000","TIME_SYSTEM":"UTC","PERIOD":"95.838","ECCENTRICITY":"0.00014040","SITE":"AFETR","BSTAR":"0.00004438900000","CENTER_NAME":"EARTH","EPOCH":"2023-06-06T19:46:59.862144","DECAY_DATE":null,"REV_AT_EPOCH":"1746","EPHEMERIS_TYPE":"0","INCLINATION":"43.0044","REF_FRAME":"TEME","MEAN_ELEMENT_THEORY":"SGP4","SEMIMAJOR_AXIS":"6937.225","OBJECT_NAME":"STARLINK-5762","FILE":"3926571","ELEMENT_SET_NO":"999","PERIAPSIS":"558.116","GP_ID":"233360591","MEAN_MOTION_DOT":"0.00000396","COUNTRY_CODE":"US","MEAN_MOTION":"15.02533295","OBJECT_TYPE":"PAYLOAD"},{"GP_ID":"233360841","PERIAPSIS":"558.268","FILE":"3926571","ELEMENT_SET_NO":"999","SEMIMAJOR_AXIS":"6937.232","OBJECT_NAME":"STARLINK-5760","OBJECT_TYPE":"PAYLOAD","MEAN_MOTION":"15.02530904","COUNTRY_CODE":"US","MEAN_MOTION_DOT":"0.00000937","INCLINATION":"43.0041","EPHEMERIS_TYPE":"0","REV_AT_EPOCH":"1746","MEAN_ELEMENT_THEORY":"SGP4","REF_FRAME":"TEME","PERIOD":"95.838","TIME_SYSTEM":"UTC","MEAN_MOTION_DDOT":"0.0000000000000","TLE_LINE1":"1 55591U 23020Y   23157.83318332  .00000937  00000-0  84437-4 0  9990","LAUNCH_DATE":"2023-02-12","CLASSIFICATION_TYPE":"U","EPOCH":"2023-06-06T19:59:47.038848","DECAY_DATE":null,"CENTER_NAME":"EARTH","SITE":"AFETR","BSTAR":"0.00008443700000","ECCENTRICITY":"0.00011960","TLE_LINE2":"2 55591  43.0041  75.4710 0001196 258.8131 101.2577 15.02530904 17468","NORAD_CAT_ID":"55591","APOAPSIS":"559.927","ARG_OF_PERICENTER":"258.8131","OBJECT_ID":"2023-020Y","RA_OF_ASC_NODE":"75.4710","RCS_SIZE":"LARGE","MEAN_ANOMALY":"101.2577"}];
